start=new Date('2022-05-08T00:00:00.000Z').valueOf();
sats=[{"PERIAPSIS":"546.244","MEAN_MOTION":"15.06376136","LAUNCH_DATE":"2021-03-04","APOAPSIS":"548.330","NORAD_CAT_ID":"47756","ELEMENT_SET_NO":"999","CLASSIFICATION_TYPE":"U","REF_FRAME":"TEME","GP_ID":"202935318","INCLINATION":"53.0565","RA_OF_ASC_NODE":"25.1794","SITE":"AFETR","OBJECT_NAME":"STARLINK-2174","DECAY_DATE":null,"TLE_LINE2":"2 47756  53.0565  25.1794 0001506  73.3260 286.7894 15.06376136 65795","MEAN_MOTION_DDOT":"0.0000000000000","MEAN_ELEMENT_THEORY":"SGP4","TIME_SYSTEM":"UTC","EPOCH":"2022-05-07T18:00:09.922176","PERIOD":"95.594","MEAN_MOTION_DOT":"0.00003184","COUNTRY_CODE":"US","MEAN_ANOMALY":"286.7894","ECCENTRICITY":"0.00015060","CENTER_NAME":"EARTH","OBJECT_ID":"2021-017AL","FILE":"3434246","EPHEMERIS_TYPE":"0","BSTAR":"0.00023269000000","TLE_LINE1":"1 47756U 21017AL  22127.75011484  .00003184  00000-0  23269-3 0  9995","SEMIMAJOR_AXIS":"6925.422","ARG_OF_PERICENTER":"73.3260","OBJECT_TYPE":"PAYLOAD","REV_AT_EPOCH":"6579","RCS_SIZE":"LARGE"},{"RA_OF_ASC_NODE":"27.6347","INCLINATION":"53.0550","SITE":"AFETR","MEAN_MOTION_DDOT":"0.0000000000000","MEAN_ELEMENT_THEORY":"SGP4","TLE_LINE2":"2 47757  53.0550  27.6347 0001746  59.7036 300.4126 15.06397044 66330","DECAY_DATE":null,"OBJECT_NAME":"STARLINK-2175","PERIAPSIS":"546.013","APOAPSIS":"548.432","LAUNCH_DATE":"2021-03-04","MEAN_MOTION":"15.06397044","ELEMENT_SET_NO":"999","NORAD_CAT_ID":"47757","GP_ID":"202926122","CLASSIFICATION_TYPE":"U","REF_FRAME":"TEME","SEMIMAJOR_AXIS":"6925.358","TLE_LINE1":"1 47757U 21017AM  22127.20459844 -.00001736  00000-0 -97666-4 0  9998","BSTAR":"-0.00009766600000","EPHEMERIS_TYPE":"0","OBJECT_TYPE":"PAYLOAD","ARG_OF_PERICENTER":"59.7036","RCS_SIZE":"LARGE","REV_AT_EPOCH":"6633","TIME_SYSTEM":"UTC","EPOCH":"2022-05-07T04:54:37.305216","PERIOD":"95.592","ECCENTRICITY":"0.00017460","MEAN_ANOMALY":"300.4126","COUNTRY_CODE":"US","MEAN_MOTION_DOT":"-0.00001736","FILE":"3433971","OBJECT_ID":"2021-017AM","CENTER_NAME":"EARTH"},{"REV_AT_EPOCH":"6565","RCS_SIZE":"LARGE","OBJECT_TYPE":"PAYLOAD","ARG_OF_PERICENTER":"45.5738","TLE_LINE1":"1 47760U 21017AQ  22127.76761077 -.00000069  00000-0  14265-4 0  9998","SEMIMAJOR_AXIS":"6925.349","EPHEMERIS_TYPE":"0","BSTAR":"0.00001426500000","CENTER_NAME":"EARTH","OBJECT_ID":"2021-017AQ","FILE":"3434251","COUNTRY_CODE":"US","MEAN_ANOMALY":"314.5395","ECCENTRICITY":"0.00017580","MEAN_MOTION_DOT":"-0.00000069","PERIOD":"95.592","TIME_SYSTEM":"UTC","EPOCH":"2022-05-07T18:25:21.570528","TLE_LINE2":"2 47760  53.0563  35.0942 0001758  45.5738 314.5395 15.06399723 65651","MEAN_MOTION_DDOT":"0.0000000000000","MEAN_ELEMENT_THEORY":"SGP4","DECAY_DATE":null,"OBJECT_NAME":"STARLINK-2178","SITE":"AFETR","RA_OF_ASC_NODE":"35.0942","INCLINATION":"53.0563","GP_ID":"202934826","CLASSIFICATION_TYPE":"U","REF_FRAME":"TEME","NORAD_CAT_ID":"47760","ELEMENT_SET_NO":"999","APOAPSIS":"548.432","MEAN_MOTION":"15.06399723","LAUNCH_DATE":"2021-03-04","PERIAPSIS":"545.997"},{"MEAN_ELEMENT_THEORY":"SGP4","MEAN_MOTION_DDOT":"0.0000000000000","TLE_LINE2":"2 47761  53.0567  27.9440 0001594  67.1957 292.9201 15.06397446 65701","OBJECT_NAME":"STARLINK-2179","DECAY_DATE":null,"SITE":"AFETR","RA_OF_ASC_NODE":"27.9440","INCLINATION":"53.0567","GP_ID":"202880955","CLASSIFICATION_TYPE":"U","REF_FRAME":"TEME","ELEMENT_SET_NO":"999","NORAD_CAT_ID":"47761","APOAPSIS":"548.325","LAUNCH_DATE":"2021-03-04","MEAN_MOTION":"15.06397446","PERIAPSIS":"546.117","RCS_SIZE":"LARGE","REV_AT_EPOCH":"6570","OBJECT_TYPE":"PAYLOAD","ARG_OF_PERICENTER":"67.1957","SEMIMAJOR_AXIS":"6925.356","TLE_LINE1":"1 47761U 21017AR  22127.13456044  .00000533  00000-0  54655-4 0  9997","BSTAR":"0.00005465500000","EPHEMERIS_TYPE":"0","FILE":"3432945","OBJECT_ID":"2021-017AR","CENTER_NAME":"EARTH","MEAN_ANOMALY":"292.9201","ECCENTRICITY":"0.00015940","COUNTRY_CODE":"US","MEAN_MOTION_DOT":"0.00000533","PERIOD":"95.592","EPOCH":"2022-05-07T03:13:46.022016","TIME_SYSTEM":"UTC"},{"ELEMENT_SET_NO":"999","NORAD_CAT_ID":"47762","CLASSIFICATION_TYPE":"U","REF_FRAME":"TEME","GP_ID":"202924872","PERIAPSIS":"545.941","LAUNCH_DATE":"2021-03-04","MEAN_MOTION":"15.06401794","APOAPSIS":"548.475","SITE":"AFETR","OBJECT_NAME":"STARLINK-2180","DECAY_DATE":null,"MEAN_MOTION_DDOT":"0.0000000000000","MEAN_ELEMENT_THEORY":"SGP4","TLE_LINE2":"2 47762  53.0564  41.3409 0001830  48.0927 312.0217 15.06401794 66199","INCLINATION":"53.0564","RA_OF_ASC_NODE":"41.3409","MEAN_MOTION_DOT":"-0.00000319","ECCENTRICITY":"0.00018300","MEAN_ANOMALY":"312.0217","COUNTRY_CODE":"US","OBJECT_ID":"2021-017AS","FILE":"3433971","CENTER_NAME":"EARTH","EPOCH":"2022-05-07T11:47:54.579552","TIME_SYSTEM":"UTC","PERIOD":"95.592","ARG_OF_PERICENTER":"48.0927","OBJECT_TYPE":"PAYLOAD","RCS_SIZE":"LARGE","REV_AT_EPOCH":"6619","BSTAR":"-0.00000251580000","EPHEMERIS_TYPE":"0","SEMIMAJOR_AXIS":"6925.343","TLE_LINE1":"1 47762U 21017AS  22127.49160393 -.00000319  00000-0 -25158-5 0  9997"},{"INCLINATION":"53.0551","RA_OF_ASC_NODE":"31.5662","SITE":"AFETR","DECAY_DATE":null,"OBJECT_NAME":"STARLINK-2181","MEAN_ELEMENT_THEORY":"SGP4","MEAN_MOTION_DDOT":"0.0000000000000","TLE_LINE2":"2 47763  53.0551  31.5662 0001712  61.2737 298.8423 15.06397242 66308","PERIAPSIS":"546.036","LAUNCH_DATE":"2021-03-04","MEAN_MOTION":"15.06397242","APOAPSIS":"548.408","ELEMENT_SET_NO":"999","NORAD_CAT_ID":"47763","CLASSIFICATION_TYPE":"U","REF_FRAME":"TEME","GP_ID":"202925623","BSTAR":"0.00013714000000","EPHEMERIS_TYPE":"0","SEMIMAJOR_AXIS":"6925.357","TLE_LINE1":"1 47763U 21017AT  22127.44187039  .00001762  00000-0  13714-3 0  9993","ARG_OF_PERICENTER":"61.2737","OBJECT_TYPE":"PAYLOAD","RCS_SIZE":"LARGE","REV_AT_EPOCH":"6630","TIME_SYSTEM":"UTC","EPOCH":"2022-05-07T10:36:17.601696","PERIOD":"95.592","MEAN_MOTION_DOT":"0.00001762","MEAN_ANOMALY":"298.8423","ECCENTRICITY":"0.00017120","COUNTRY_CODE":"US","FILE":"3433971","OBJECT_ID":"2021-017AT","CENTER_NAME":"EARTH"},{"EPOCH":"2022-05-07T11:28:01.953696","TIME_SYSTEM":"UTC","PERIOD":"95.592","MEAN_MOTION_DOT":"0.00001485","COUNTRY_CODE":"US","ECCENTRICITY":"0.00015420","MEAN_ANOMALY":"298.9324","CENTER_NAME":"EARTH","OBJECT_ID":"2021-017AU","FILE":"3433971","EPHEMERIS_TYPE":"0","BSTAR":"0.00011859000000","TLE_LINE1":"1 47764U 21017AU  22127.47780039  .00001485  00000-0  11859-3 0  9996","SEMIMAJOR_AXIS":"6925.351","ARG_OF_PERICENTER":"61.1819","OBJECT_TYPE":"PAYLOAD","REV_AT_EPOCH":"6622","RCS_SIZE":"LARGE","PERIAPSIS":"546.148","MEAN_MOTION":"15.06399108","LAUNCH_DATE":"2021-03-04","APOAPSIS":"548.284","NORAD_CAT_ID":"47764","ELEMENT_SET_NO":"999","CLASSIFICATION_TYPE":"U","REF_FRAME":"TEME","GP_ID":"202926371","INCLINATION":"53.0568","RA_OF_ASC_NODE":"41.3947","SITE":"AFETR","DECAY_DATE":null,"OBJECT_NAME":"STARLINK-2182","TLE_LINE2":"2 47764  53.0568  41.3947 0001542  61.1819 298.9324 15.06399108 66228","MEAN_ELEMENT_THEORY":"SGP4","MEAN_MOTION_DDOT":"0.0000000000000"},{"GP_ID":"202925122","CLASSIFICATION_TYPE":"U","REF_FRAME":"TEME","ELEMENT_SET_NO":"999","NORAD_CAT_ID":"47766","APOAPSIS":"548.511","LAUNCH_DATE":"2021-03-04","MEAN_MOTION":"15.06393742","PERIAPSIS":"545.954","MEAN_MOTION_DDOT":"0.0000000000000","MEAN_ELEMENT_THEORY":"SGP4","TLE_LINE2":"2 47766  53.0556  41.3169 0001846  50.5712 309.5441 15.06393742 66164","DECAY_DATE":null,"OBJECT_NAME":"STARLINK-2184","SITE":"AFETR","RA_OF_ASC_NODE":"41.3169","INCLINATION":"53.0556","OBJECT_ID":"2021-017AW","FILE":"3433971","CENTER_NAME":"EARTH","ECCENTRICITY":"0.00018460","MEAN_ANOMALY":"309.5441","COUNTRY_CODE":"US","MEAN_MOTION_DOT":"-0.00000456","PERIOD":"95.593","TIME_SYSTEM":"UTC","EPOCH":"2022-05-07T11:54:35.140320","RCS_SIZE":"LARGE","REV_AT_EPOCH":"6616","OBJECT_TYPE":"PAYLOAD","ARG_OF_PERICENTER":"50.5712","SEMIMAJOR_AXIS":"6925.368","TLE_LINE1":"1 47766U 21017AW  22127.49624005 -.00000456  00000-0 -11723-4 0  9990","BSTAR":"-0.00001172300000","EPHEMERIS_TYPE":"0"},{"REV_AT_EPOCH":"6581","RCS_SIZE":"LARGE","ARG_OF_PERICENTER":"61.2047","OBJECT_TYPE":"PAYLOAD","EPHEMERIS_TYPE":"0","BSTAR":"0.00002561900000","TLE_LINE1":"1 47767U 21017AX  22127.85331425  .00000100  00000-0  25619-4 0  9995","SEMIMAJOR_AXIS":"6925.368","CENTER_NAME":"EARTH","FILE":"3434253","OBJECT_ID":"2021-017AX","MEAN_MOTION_DOT":"0.00000100","COUNTRY_CODE":"US","ECCENTRICITY":"0.00018140","MEAN_ANOMALY":"298.9124","PERIOD":"95.593","EPOCH":"2022-05-07T20:28:46.351200","TIME_SYSTEM":"UTC","DECAY_DATE":null,"OBJECT_NAME":"STARLINK-2185","TLE_LINE2":"2 47767  53.0562  24.7120 0001814  61.2047 298.9124 15.06393776 65816","MEAN_ELEMENT_THEORY":"SGP4","MEAN_MOTION_DDOT":"0.0000000000000","SITE":"AFETR","INCLINATION":"53.0562","RA_OF_ASC_NODE":"24.7120","CLASSIFICATION_TYPE":"U","REF_FRAME":"TEME","GP_ID":"202935881","NORAD_CAT_ID":"47767","ELEMENT_SET_NO":"999","MEAN_MOTION":"15.06393776","LAUNCH_DATE":"2021-03-04","APOAPSIS":"548.489","PERIAPSIS":"545.976"},{"BSTAR":"0.00008446700000","EPHEMERIS_TYPE":"0","SEMIMAJOR_AXIS":"6925.375","TLE_LINE1":"1 47768U 21017AY  22127.72381978  .00000977  00000-0  84467-4 0  9998","ARG_OF_PERICENTER":"63.3053","OBJECT_TYPE":"PAYLOAD","RCS_SIZE":"LARGE","REV_AT_EPOCH":"6558","EPOCH":"2022-05-07T17:22:18.028992","TIME_SYSTEM":"UTC","PERIOD":"95.593","MEAN_MOTION_DOT":"0.00000977","ECCENTRICITY":"0.00015650","MEAN_ANOMALY":"296.8096","COUNTRY_CODE":"US","FILE":"3434255","OBJECT_ID":"2021-017AY","CENTER_NAME":"EARTH","INCLINATION":"53.0566","RA_OF_ASC_NODE":"40.2986","SITE":"AFETR","OBJECT_NAME":"STARLINK-2189","DECAY_DATE":null,"MEAN_MOTION_DDOT":"0.0000000000000","MEAN_ELEMENT_THEORY":"SGP4","TLE_LINE2":"2 47768  53.0566  40.2986 0001565  63.3053 296.8096 15.06391404 65582","PERIAPSIS":"546.156","LAUNCH_DATE":"2021-03-04","MEAN_MOTION":"15.06391404","APOAPSIS":"548.324","ELEMENT_SET_NO":"999","NORAD_CAT_ID":"47768","CLASSIFICATION_TYPE":"U","REF_FRAME":"TEME","GP_ID":"202935911"}];
